[{"OBJECT_NAME":"OBJECT D","OBJECT_ID":"2024-174D","EPOCH":"2026-03-10T00:15:10.483200","MEAN_MOTION":15.28039787,"ECCENTRICITY":0.00110644,"INCLINATION":97.4441,"RA_OF_ASC_NODE":80.4677,"ARG_OF_PERICENTER":212.9968,"MEAN_ANOMALY":147.0582,"EPHEMERIS_TYPE":0,"CLASSIFICATION_TYPE":"U","NORAD_CAT_ID":61241,"ELEMENT_SET_NO":999,"REV_AT_EPOCH":8076,"BSTAR":0.00036340099,"MEAN_MOTION_DOT":9.884e-5,"MEAN_MOTION_DDOT":0},{"OBJECT_NAME":"STARLINK-35329","OBJECT_ID":"2025-224AC","EPOCH":"2026-03-09T05:24:36.558432","MEAN_MOTION":15.30213963,"ECCENTRICITY":0.00011578,"INCLINATION":53.1616,"RA_OF_ASC_NODE":13.466,"ARG_OF_PERICENTER":87.6875,"MEAN_ANOMALY":272.4259,"EPHEMERIS_TYPE":0,"CLASSIFICATION_TYPE":"U","NORAD_CAT_ID":65908,"ELEMENT_SET_NO":999,"REV_AT_EPOCH":2479,"BSTAR":0.0014505109,"MEAN_MOTION_DOT":0.00042867,"MEAN_MOTION_DDOT":0}]
